OBJECT_NAME,OBJECT_ID,EPOCH,MEAN_MOTION,ECCENTRICITY,INCLINATION,RA_OF_ASC_NODE,ARG_OF_PERICENTER,MEAN_ANOMALY,EPHEMERIS_TYPE,CLASSIFICATION_TYPE,NORAD_CAT_ID,ELEMENT_SET_NO,REV_AT_EPOCH,BSTAR,MEAN_MOTION_DOT,MEAN_MOTION_DDOT
DUBAISAT-1,2009-041B,2026-07-22T07:02:08.992896,14.75174542,.00094202,98.0092,336.1753,324.3179,35.7399,0,U,35682,999,91027,.1019404E-3,.638E-5,0
OCEANSAT-2,2009-051A,2026-07-22T14:02:40.098912,13.99656812,.00177699,98.2328,186.9025,132.3952,227.8722,0,U,35931,999,88428,.12312763E-3,.143E-5,0
WORLDVIEW-2 (WV-2),2009-055A,2026-07-22T12:19:17.734944,14.37908339,.00055299,98.4750,276.4819,112.5116,247.6657,0,U,35946,999,88072,.32083653E-4,.53E-6,0
SMOS,2009-059A,2026-07-22T11:50:48.971040,14.39739066,.00012149,98.4431,30.3113,98.7041,261.4285,0,U,36036,999,87853,.80841488E-4,.21E-5,0
YAOGAN-7,2009-069A,2026-07-22T10:15:35.430624,14.78040130,.00231849,98.0023,89.0693,286.8315,73.0353,0,U,36110,999,89483,.53995185E-4,.338E-5,0
TANDEM-X,2010-030A,2026-07-22T11:55:52.291200,15.19149439,.00018225,97.4465,210.7021,100.4354,259.7087,0,U,36605,999,89200,.10450617E-4,.152E-5,0
CARTOSAT-2B,2010-035A,2026-07-22T14:18:28.116864,14.78657690,.00127558,97.9934,253.9153,78.7806,281.4838,0,U,36795,999,86508,.99790513E-4,.68E-5,0
YAOGAN-10,2010-038A,2026-07-22T15:48:02.476800,14.85446838,.00016682,97.8978,226.7802,83.8650,24.9436,0,U,36834,999,86247,.20464226E-3,.171E-4,0
COSMO-SKYMED 4,2010-060A,2026-07-22T14:48:07.687296,14.82157392,.00015724,97.8906,26.7045,88.5283,271.6110,0,U,37216,999,84981,.10296716E-3,.768E-5,0
RESOURCESAT-2,2011-015A,2026-07-22T11:47:53.947968,14.21600685,.00119585,98.7626,270.6860,151.0110,209.1734,0,U,37387,999,79119,.36064114E-4,.35E-6,0
HAIYANG-2A,2011-043A,2026-07-22T10:25:16.860288,13.73102455,.00014708,99.3412,205.2956,18.7736,341.3467,0,U,37781,999,75149,.10262353E-4,-.34E-6,0
RASAT,2011-044D,2026-07-22T15:07:51.662784,14.68197133,.00219755,98.0575,294.4873,80.7840,53.7012,0,U,37791,999,79838,.51205307E-4,.247E-5,0
SRMSAT,2011-058D,2026-07-22T08:19:27.199776,14.11582083,.0011581,19.9701,206.6555,230.1974,157.7925,0,U,37841,999,76279,.46157548E-4,.35E-5,0
PLEIADES 1A,2011-076F,2026-07-22T16:17:36.356928,14.58550096,.00015974,98.1961,278.3025,77.9551,74.8200,0,U,38012,999,77716,.84292347E-4,.346E-5,0
ZIYUAN 1-02C (ZY 1-02C),2011-079A,2026-07-22T15:27:17.388864,14.38240188,.00061213,98.4052,270.2090,190.1117,324.9213,0,U,38038,999,76430,.14858202E-3,.409E-5,0
ARIRANG-3 (KOMPSAT-3),2012-025B,2026-07-22T14:47:23.403840,14.62233627,.00057362,98.1190,160.4695,18.3986,341.7422,0,U,38338,999,75652,.77755151E-4,.345E-5,0
EXACTVIEW-1 (ADS-1B),2012-039C,2026-07-22T06:40:45.526080,14.24993627,.00118591,98.9809,321.4667,72.8834,287.3642,0,U,38709,999,72770,.51570921E-4,.74E-6,0
SPOT 6,2012-047A,2026-07-22T14:19:07.572288,14.58542099,.00011312,98.2099,270.4876,93.7469,266.3860,0,U,38755,999,73821,.98392148E-4,.411E-5,0
PLEIADES 1B,2012-068A,2026-07-22T14:45:56.327328,14.58537808,.00014691,98.1930,278.1764,77.6660,282.4704,0,U,39019,999,72601,.10546651E-3,.444E-5,0
GOKTURK 2,2012-073A,2026-07-22T14:44:46.084128,14.75571013,.00011171,97.6817,39.2685,108.3746,251.7586,0,U,39030,999,72973,-.905431E-5,-.109E-5,0
LANDSAT 8,2013-008A,2026-07-22T12:39:01.815840,14.57097645,.00013327,98.2284,273.2394,91.8130,268.3221,0,U,39084,999,70304,.55726509E-4,.206E-5,0
SARAL,2013-009A,2026-07-22T14:01:12.004608,14.32897072,.00021271,98.5560,29.7042,150.3066,209.8239,0,U,39086,999,70067,.35713076E-4,.54E-6,0
GAOFEN-1,2013-018A,2026-07-22T15:23:11.216256,14.76526373,.00176969,97.9077,274.9853,147.7348,212.4948,0,U,39150,999,71347,.15901379E-3,.106E-4,0
VNREDSAT 1,2013-021B,2026-07-22T14:35:54.693024,14.64889144,.00015169,97.9060,255.6617,81.1896,278.9479,0,U,39160,999,70547,.10006578E-3,.49E-5,0
ARIRANG-5 (KOMPSAT-5),2013-042A,2026-07-22T14:45:40.280256,15.04501176,.00044183,97.6202,29.8176,35.6981,324.4540,0,U,39227,999,70918,.3149434E-4,.38E-5,0
SKYSAT-A,2013-066C,2026-07-22T08:58:33.755520,15.13143261,.00211474,97.3797,251.6497,187.9064,172.1837,0,U,39418,999,69380,.1302797E-3,.2256E-4,0
DUBAISAT-2,2013-066D,2026-07-22T13:59:07.933344,15.10410484,.00092498,97.4589,192.8091,272.2928,87.7243,0,U,39419,999,69173,.28523205E-3,.4628E-4,0
GPM-CORE,2014-009C,2026-07-22T13:18:21.462912,15.45106060,.00108532,64.9698,189.6202,264.0703,95.9200,0,U,39574,999,70327,.13294815E-3,.6083E-4,0
SENTINEL-1A,2014-016A,2026-07-22T14:43:07.881024,14.59174251,.00014466,98.1699,210.6250,83.1946,276.9419,0,U,39634,999,65518,.71208409E-4,.29E-5,0
KAZEOSAT 1,2014-024A,2026-07-22T14:47:48.054624,14.42039542,.00012078,98.3188,275.1792,88.7890,271.3438,0,U,39731,999,64366,.77674789E-4,.212E-5,0
