{"epoch":1784762836,"count":18316,"objects":[{"id":"35682","name":"DUBAISAT 1","type":"PAYLOAD","l1":"1 35682U 09041B   26203.29315964  .00000638  00000-0  10194-3 0  9995","l2":"2 35682  98.0092 336.1753 0009420 324.3179  35.7399 14.75174542910271"},{"id":"35931","name":"OCEANSAT 2","type":"PAYLOAD","l1":"1 35931U 09051A   26203.58518633  .00000143  00000-0  12313-3 0  9999","l2":"2 35931  98.2328 186.9025 0017770 132.3952 227.8722 13.99656812884283"},{"id":"35946","name":"WORLDVIEW 2","type":"PAYLOAD","l1":"1 35946U 09055A   26203.51339971  .00000053  00000-0  32084-4 0  9996","l2":"2 35946  98.4750 276.4819 0005530 112.5116 247.6657 14.37908339880728"},{"id":"36036","name":"SMOS","type":"PAYLOAD","l1":"1 36036U 09059A   26203.49362235  .00000210  00000-0  80841-4 0  9996","l2":"2 36036  98.4431  30.3113 0001215  98.7041 261.4285 14.39739066878535"},{"id":"36110","name":"YAOGAN 7","type":"PAYLOAD","l1":"1 36110U 09069A   26203.42749341  .00000338  00000-0  53995-4 0  9991","l2":"2 36110  98.0023  89.0693 0023185 286.8315  73.0353 14.78040130894833"},{"id":"36605","name":"TANDEM X","type":"PAYLOAD","l1":"1 36605U 10030A   26203.49713300  .00000152  00000-0  10451-4 0  9997","l2":"2 36605  97.4465 210.7021 0001823 100.4354 259.7087 15.19149439892004"},{"id":"36795","name":"CARTOSAT 2B","type":"PAYLOAD","l1":"1 36795U 10035A   26203.59615876  .00000680  00000-0  99791-4 0  9992","l2":"2 36795  97.9934 253.9153 0012756  78.7806 281.4838 14.78657690865082"},{"id":"36834","name":"YAOGAN 10","type":"PAYLOAD","l1":"1 36834U 10038A   26203.65836200  .00001710  00000-0  20464-3 0  9997","l2":"2 36834  97.8978 226.7802 0001668  83.8650  24.9436 14.85446838862478"},{"id":"37216","name":"SKYMED 4","type":"PAYLOAD","l1":"1 37216U 10060A   26203.61675564  .00000768  00000-0  10297-3 0  9992","l2":"2 37216  97.8906  26.7045 0001572  88.5283 271.6110 14.82157392849813"},{"id":"37387","name":"RESOURCESAT 2","type":"PAYLOAD","l1":"1 37387U 11015A   26203.49159662  .00000035  00000-0  36064-4 0  9992","l2":"2 37387  98.7626 270.6860 0011959 151.0110 209.1734 14.21600685791197"},{"id":"37781","name":"HAIYANG 2A","type":"PAYLOAD","l1":"1 37781U 11043A   26203.43422292 -.00000034  00000-0  10262-4 0  9999","l2":"2 37781  99.3412 205.2956 0001471  18.7736 341.3467 13.73102455751495"},{"id":"37791","name":"RASAT","type":"PAYLOAD","l1":"1 37791U 11044D   26203.63045906  .00000247  00000-0  51205-4 0  9993","l2":"2 37791  98.0575 294.4873 0021976  80.7840  53.7012 14.68197133798388"},{"id":"37841","name":"SRMSAT","type":"PAYLOAD","l1":"1 37841U 11058D   26203.34684259  .00000350  00000-0  46158-4 0  9998","l2":"2 37841  19.9701 206.6555 0011581 230.1974 157.7925 14.11582083762793"},{"id":"38012","name":"PLEIADES 1","type":"PAYLOAD","l1":"1 38012U 11076F   26203.67889302  .00000346  00000-0  84292-4 0  9997","l2":"2 38012  98.1961 278.3025 0001597  77.9551  74.8200 14.58550096777165"},{"id":"38038","name":"ZY 1","type":"PAYLOAD","l1":"1 38038U 11079A   26203.64395126  .00000409  00000-0  14858-3 0  9991","l2":"2 38038  98.4052 270.2090 0006121 190.1117 324.9213 14.38240188764305"},{"id":"38338","name":"KOMPSAT 3","type":"PAYLOAD","l1":"1 38338U 12025B   26203.61624310  .00000345  00000-0  77755-4 0  9998","l2":"2 38338  98.1190 160.4695 0005736  18.3986 341.7422 14.62233627756526"},{"id":"38709","name":"EXACTVIEW-1","type":"PAYLOAD","l1":"1 38709U 12039C   26203.27830470  .00000074  00000-0  51571-4 0  9990","l2":"2 38709  98.9809 321.4667 0011859  72.8834 287.3642 14.24993627727709"},{"id":"38755","name":"SPOT 6","type":"PAYLOAD","l1":"1 38755U 12047A   26203.59661542  .00000411  00000-0  98392-4 0  9994","l2":"2 38755  98.2099 270.4876 0001131  93.7469 266.3860 14.58542099738214"},{"id":"39019","name":"PLEIADES 1B","type":"PAYLOAD","l1":"1 39019U 12068A   26203.61523527  .00000444  00000-0  10547-3 0  9995","l2":"2 39019  98.1930 278.1764 0001469  77.6660 282.4704 14.58537808726013"},{"id":"39030","name":"GOKTURK 2","type":"PAYLOAD","l1":"1 39030U 12073A   26203.61442227 -.00000109  00000-0 -90543-5 0  9997","l2":"2 39030  97.6817  39.2685 0001117 108.3746 251.7586 14.75571013729733"},{"id":"39084","name":"LANDSAT 8","type":"PAYLOAD","l1":"1 39084U 13008A   26203.52710435  .00000206  00000-0  55727-4 0  9994","l2":"2 39084  98.2284 273.2394 0001333  91.8130 268.3221 14.57097645703047"},{"id":"39086","name":"SARAL","type":"PAYLOAD","l1":"1 39086U 13009A   26203.58416672  .00000054  00000-0  35713-4 0  9993","l2":"2 39086  98.5560  29.7042 0002127 150.3066 209.8239 14.32897072700674"},{"id":"39150","name":"GAOFEN 1","type":"PAYLOAD","l1":"1 39150U 13018A   26203.64110204  .00001060  00000-0  15901-3 0  9998","l2":"2 39150  97.9077 274.9853 0017697 147.7348 212.4948 14.76526373713477"},{"id":"39160","name":"VNREDSAT 1","type":"PAYLOAD","l1":"1 39160U 13021B   26203.60827191  .00000490  00000-0  10007-3 0  9997","l2":"2 39160  97.9060 255.6617 0001517  81.1896 278.9479 14.64889144705479"},{"id":"39227","name":"KOMPSAT 5","type":"PAYLOAD","l1":"1 39227U 13042A   26203.61504954  .00000380  00000-0  31494-4 0  9996","l2":"2 39227  97.6202  29.8176 0004418  35.6981 324.4540 15.04501176709180"},{"id":"39418","name":"SKYSAT 1","type":"PAYLOAD","l1":"1 39418U 13066C   26203.37400180  .00002256  00000-0  13028-3 0  9999","l2":"2 39418  97.3797 251.6497 0021147 187.9064 172.1837 15.13143261693805"},{"id":"39419","name":"DUBAISAT 2","type":"PAYLOAD","l1":"1 39419U 13066D   26203.58273071  .00004628  00000-0  28523-3 0  9991","l2":"2 39419  97.4589 192.8091 0009250 272.2928  87.7243 15.10410484691733"},{"id":"39574","name":"GPM","type":"PAYLOAD","l1":"1 39574U 14009C   26203.55441508  .00006083  00000-0  13295-3 0  9997","l2":"2 39574  64.9698 189.6202 0010853 264.0703  95.9200 15.45106060703271"},{"id":"39634","name":"SENTINEL 1A","type":"PAYLOAD","l1":"1 39634U 14016A   26203.61328566  .00000290  00000-0  71208-4 0  9990","l2":"2 39634  98.1699 210.6250 0001447  83.1946 276.9419 14.59174251655184"},{"id":"39731","name":"KAZEOSAT 1","type":"PAYLOAD","l1":"1 39731U 14024A   26203.61652841  .00000212  00000-0  77675-4 0  9991","l2":"2 39731  98.3188 275.1792 0001208  88.7890 271.3438 14.42039542643663"}]}